     2.100          NAVIGATION                              RINEX VERSION / TYPE
novaRinex v2.1 9/07 ARL:UT/GPSTk        08/22/2016 16:28:35 PGM / RUN BY / DATE
Created by GPSTK program novaRinex v2.1 9/072016/08/22 16:28COMMENT
                                                            END OF HEADER
13 16  4  2 14  0  0.0 -.811880454421D-05 -.272848410532D-11  .000000000000D+00
     .200000000000D+01  .690625000000D+01  .466126558899D-08  .133051084000D+01
     .204890966415D-06  .457613810431D-02  .598840415478D-05  .515367447472D+04
     .568800000000D+06 -.298023223877D-07  .104156661761D+01 -.167638063431D-07
     .971763544366D+00  .272062500000D+03  .198749940429D+01 -.822927135361D-08
    -.339299847486D-10  .100000000000D+01  .189000000000D+04  .000000000000D+00
     .240000000000D+01  .000000000000D+00 -.111758708954D-07  .200000000000D+01
     .566526000000D+06  .400000000000D+01
18 16  4  2 14  0  0.0  .500416848809D-03  .409272615798D-11  .000000000000D+00
     .200000000000D+01  .126562500000D+02  .499877964781D-08 -.150508821434D+01
     .644475221634D-06  .169363503810D-01  .103693455458D-04  .515367425919D+04
     .568800000000D+06  .150874257088D-06 -.149106127303D+00 -.169500708580D-06
     .925399672279D+00  .157312500000D+03 -.190062092300D+01 -.793961643118D-08
     .371086885830D-09  .000000000000D+00  .189000000000D+04  .000000000000D+00
     .240000000000D+01  .000000000000D+00 -.111758708954D-07  .200000000000D+01
     .566526000000D+06  .400000000000D+01
17 16  4  2 14  0  0.0 -.202738214284D-03 -.341060513165D-12  .000000000000D+00
     .200000000000D+01 -.318437500000D+02  .455590405741D-08 -.306544415416D+01
    -.172853469849D-05  .109839490615D-01  .415742397308D-05  .515366303062D+04
     .568800000000D+06 -.245869159698D-06 -.216777598416D+01  .186264514923D-07
     .975674748015D+00  .312562500000D+03 -.193354387536D+01 -.845606651483D-08
    -.184293390845D-09  .100000000000D+01  .189000000000D+04  .000000000000D+00
     .340000000000D+01  .000000000000D+00 -.107102096081D-07  .200000000000D+01
     .566526000000D+06  .400000000000D+01
28 16  4  2 14  0  0.0  .513483304530D-03  .261479726760D-11  .000000000000D+00
     .200000000000D+01  .713125000000D+02  .390123393062D-08 -.229785537113D+01
     .336766242981D-05  .197763849283D-01  .754930078983D-05  .515362762833D+04
     .568800000000D+06  .290572643280D-06  .309855516756D+01 -.374391674995D-06
     .989802642373D+00  .245343750000D+03 -.161782645566D+01 -.765817613663D-08
     .221794952936D-09  .100000000000D+01  .189000000000D+04  .000000000000D+00
     .240000000000D+01  .000000000000D+00 -.107102096081D-07  .200000000000D+01
     .566526000000D+06  .400000000000D+01
17 16  4  2 14  0  0.0 -.202738214284D-03 -.341060513165D-12  .000000000000D+00
     .200000000000D+01 -.318437500000D+02  .455590405741D-08 -.306544415416D+01
    -.172853469849D-05  .109839490615D-01  .415742397308D-05  .515366303062D+04
     .568800000000D+06 -.245869159698D-06 -.216777598416D+01  .186264514923D-07
     .975674748015D+00  .312562500000D+03 -.193354387536D+01 -.845606651483D-08
    -.184293390845D-09  .100000000000D+01  .189000000000D+04  .000000000000D+00
     .340000000000D+01  .000000000000D+00 -.107102096081D-07  .200000000000D+01
     .567066000000D+06  .400000000000D+01
10 16  4  2 14  0  0.0  .118897296488D-04 -.977706804406D-11  .000000000000D+00
     .200000000000D+01  .235000000000D+02  .438553981819D-08 -.116217598287D+01
     .136159360409D-05  .134832062759D-02  .104792416096D-04  .515368701935D+04
     .568800000000D+06  .745058059692D-08 -.122103705355D+00 -.782310962677D-07
     .959929294897D+00  .178031250000D+03 -.278840761095D+01 -.792104422900D-08
     .422517599554D-09  .000000000000D+00  .189000000000D+04  .000000000000D+00
     .240000000000D+01  .000000000000D+00  .232830643654D-08  .200000000000D+01
     .567126000000D+06  .400000000000D+01
17 16  4  2 14  0  0.0 -.202738214284D-03 -.341060513165D-12  .000000000000D+00
     .200000000000D+01 -.318437500000D+02  .455590405741D-08 -.306544415416D+01
    -.172853469849D-05  .109839490615D-01  .415742397308D-05  .515366303062D+04
     .568800000000D+06 -.245869159698D-06 -.216777598416D+01  .186264514923D-07
     .975674748015D+00  .312562500000D+03 -.193354387536D+01 -.845606651483D-08
    -.184293390845D-09  .100000000000D+01  .189000000000D+04  .000000000000D+00
     .340000000000D+01  .000000000000D+00 -.107102096081D-07  .200000000000D+01
     .567126000000D+06  .400000000000D+01
28 16  4  2 14  0  0.0  .513483304530D-03  .261479726760D-11  .000000000000D+00
     .200000000000D+01  .713125000000D+02  .390123393062D-08 -.229785537113D+01
     .336766242981D-05  .197763849283D-01  .754930078983D-05  .515362762833D+04
     .568800000000D+06  .290572643280D-06  .309855516756D+01 -.374391674995D-06
     .989802642373D+00  .245343750000D+03 -.161782645566D+01 -.765817613663D-08
     .221794952936D-09  .100000000000D+01  .189000000000D+04  .000000000000D+00
     .240000000000D+01  .000000000000D+00 -.107102096081D-07  .200000000000D+01
     .567126000000D+06  .400000000000D+01
28 16  4  2 14  0  0.0  .513483304530D-03  .261479726760D-11  .000000000000D+00
     .200000000000D+01  .713125000000D+02  .390123393062D-08 -.229785537113D+01
     .336766242981D-05  .197763849283D-01  .754930078983D-05  .515362762833D+04
     .568800000000D+06  .290572643280D-06  .309855516756D+01 -.374391674995D-06
     .989802642373D+00  .245343750000D+03 -.161782645566D+01 -.765817613663D-08
     .221794952936D-09  .100000000000D+01  .189000000000D+04  .000000000000D+00
     .240000000000D+01  .000000000000D+00 -.107102096081D-07  .200000000000D+01
     .567696000000D+06  .400000000000D+01
28 16  4  2 14  0  0.0  .513483304530D-03  .261479726760D-11  .000000000000D+00
     .200000000000D+01  .713125000000D+02  .390123393062D-08 -.229785537113D+01
     .336766242981D-05  .197763849283D-01  .754930078983D-05  .515362762833D+04
     .568800000000D+06  .290572643280D-06  .309855516756D+01 -.374391674995D-06
     .989802642373D+00  .245343750000D+03 -.161782645566D+01 -.765817613663D-08
     .221794952936D-09  .100000000000D+01  .189000000000D+04  .000000000000D+00
     .240000000000D+01  .000000000000D+00 -.107102096081D-07  .200000000000D+01
     .567726000000D+06  .400000000000D+01
 4 16  4  2 16  0  0.0 -.253738835454D-03 -.795807864051D-12  .000000000000D+00
     .300000000000D+01  .673437500000D+02  .531379276937D-08 -.933663185951D+00
     .342354178429D-05  .835991196800D-02  .878423452377D-05  .515363225365D+04
     .576000000000D+06 -.147148966789D-06  .304588015131D+01 -.167638063431D-06
     .983625230865D+00  .222093750000D+03  .865195217094D+00 -.777460955798D-08
     .213223167315D-09  .100000000000D+01  .189000000000D+04  .000000000000D+00
     .485000000000D+01  .630000000000D+02 -.190921127796D-07  .300000000000D+01
     .570066000000D+06  .400000000000D+01
 4 16  4  2 16  0  0.0 -.253738835454D-03 -.795807864051D-12  .000000000000D+00
     .300000000000D+01  .673437500000D+02  .531379276937D-08 -.933663185951D+00
     .342354178429D-05  .835991196800D-02  .878423452377D-05  .515363225365D+04
     .576000000000D+06 -.147148966789D-06  .304588015131D+01 -.167638063431D-06
     .983625230865D+00  .222093750000D+03  .865195217094D+00 -.777460955798D-08
     .213223167315D-09  .100000000000D+01  .189000000000D+04  .000000000000D+00
     .485000000000D+01  .630000000000D+02 -.190921127796D-07  .300000000000D+01
     .570096000000D+06  .400000000000D+01
 4 16  4  2 16  0  0.0 -.253738835454D-03 -.795807864051D-12  .000000000000D+00
     .300000000000D+01  .673437500000D+02  .531379276937D-08 -.933663185951D+00
     .342354178429D-05  .835991196800D-02  .878423452377D-05  .515363225365D+04
     .576000000000D+06 -.147148966789D-06  .304588015131D+01 -.167638063431D-06
     .983625230865D+00  .222093750000D+03  .865195217094D+00 -.777460955798D-08
     .213223167315D-09  .100000000000D+01  .189000000000D+04  .000000000000D+00
     .485000000000D+01  .630000000000D+02 -.190921127796D-07  .300000000000D+01
     .570126000000D+06  .400000000000D+01
21 16  4  2 16  0  0.0 -.517521984875D-03 -.159161572810D-11  .000000000000D+00
     .300000000000D+01 -.100562500000D+03  .475376944215D-08  .413089621561D+00
    -.523962080479D-05  .233430664521D-01  .839866697788D-05  .515364714050D+04
     .576000000000D+06  .275671482086D-06 -.119130681165D+01 -.428408384323D-07
     .935740741746D+00  .198031250000D+03 -.180856558279D+01 -.786389899153D-08
    -.117147736816D-09  .100000000000D+01  .189000000000D+04  .000000000000D+00
     .240000000000D+01  .000000000000D+00 -.116415321827D-07  .300000000000D+01
     .570666000000D+06  .400000000000D+01
 5 16  4  2 16  0  0.0 -.132212880999D-03  .318323145621D-11  .000000000000D+00
     .300000000000D+01  .216562500000D+02  .477805616808D-08 -.122134861560D+01
     .114925205708D-05  .456340482924D-02  .101905316114D-04  .515376257133D+04
     .576000000000D+06 -.130385160446D-07 -.129268289595D+00  .204890966415D-07
     .946768638085D+00  .176531250000D+03  .466161663539D+00 -.813962476233D-08
     .382158775590D-09  .100000000000D+01  .189000000000D+04  .000000000000D+00
     .240000000000D+01  .000000000000D+00 -.107102096081D-07  .300000000000D+01
     .570666000000D+06  .400000000000D+01
 2 16  4  2 16  0  0.0  .598398037255D-03 -.568434188608D-12  .000000000000D+00
     .300000000000D+01 -.890312500000D+02  .501092301077D-08  .256808165763D+01
    -.451877713203D-05  .156180759659D-01  .937469303608D-05  .515375188446D+04
     .576000000000D+06  .372529029846D-08 -.120366141230D+01  .251457095146D-06
     .942547181696D+00  .191656250000D+03 -.213822082283D+01 -.859857245077D-08
    -.226795161215D-09  .100000000000D+01  .189000000000D+04  .000000000000D+00
     .240000000000D+01  .000000000000D+00 -.204890966415D-07  .300000000000D+01
     .570696000000D+06  .400000000000D+01
